QIANFAN-9               
1 60387U 24140J   26022.93815548  .00000217  00000+0  31644-3 0  9990
2 60387  88.9780 295.0816 0018089  78.2589 282.0591 13.50987821 72899
QIANFAN-10              
1 60388U 24140K   26022.94229544  .00000225  00000+0  32951-3 0  9998
2 60388  88.9789 294.4324 0016480  58.0445 302.2306 13.50993749 73027
QIANFAN-11              
1 60389U 24140L   26022.97948228  .00000227  00000+0  33219-3 0  9999
2 60389  88.9716 294.9850 0016123  77.8914 282.4043 13.50993292 72682
QIANFAN-12              
1 60390U 24140M   26022.99997982  .00000243  00000+0  35671-3 0  9996
2 60390  88.9759 295.0442 0014906  85.0037 275.2816 13.50990805 72814
QIANFAN-13              
1 60391U 24140N   26022.97116207  .00000236  00000+0  34638-3 0  9992
2 60391  88.9771 295.1521 0014713  87.3533 272.9302 13.50991270 72833
QIANFAN-14              
1 60392U 24140P   26022.99578577  .00000231  00000+0  33781-3 0  9990
2 60392  88.9750 295.0384 0018392  87.6015 272.7241 13.50990806 72847
QIANFAN-15              
1 60393U 24140Q   26023.00409244  .00000244  00000+0  35944-3 0  9995
2 60393  88.9773 295.0038 0014249  75.2075 285.0654 13.50989261 72832
QIANFAN-16              
1 60394U 24140R   26022.99171746  .00000234  00000+0  34406-3 0  9997
2 60394  88.9777 295.1265 0016302  90.9834 269.3185 13.50994771 72745
